{
  "norad_id": 60732,
  "name": "STARLINK-11266 [DTC]",
  "history": [
    {
      "epoch": "2026-03-28T05:46:28.668576Z",
      "apogee_km": 360.64251837385746,
      "perigee_km": 358.74379783530276,
      "latitude_deg": 6.745990238568563e-05,
      "longitude_deg": 112.14500655550795,
      "height_km": 360.2926225620603,
      "semi_major_axis_km": 6737.83015810458,
      "eccentricity": 0.0001409,
      "inclination_deg": 53.1588,
      "raan_deg": 24.4283,
      "arg_perigee_deg": 70.7017,
      "mean_anomaly_deg": 289.4154,
      "mean_motion_rev_day": 15.69721739
    },
    {
      "epoch": "2026-03-29T01:38:22.430688Z",
      "apogee_km": 360.48140966433675,
      "perigee_km": 358.9424849647703,
      "latitude_deg": -1.7197335307825388e-05,
      "longitude_deg": 169.27881057629756,
      "height_km": 360.36983400589406,
      "semi_major_axis_km": 6737.848947314553,
      "eccentricity": 0.0001142,
      "inclination_deg": 53.1583,
      "raan_deg": 20.352,
      "arg_perigee_deg": 70.5968,
      "mean_anomaly_deg": 289.5173,
      "mean_motion_rev_day": 15.69715173
    }
  ]
}